STARLINK-31679          
1 59519U 24073J   26068.07392684 -.00000471  00000+0 -75795-5 0  9997
2 59519  43.0014 310.9222 0001461 270.1269  89.9415 15.27579085106205
COSMOS 2588             
1 64095U 25109A   26068.81179522  .00009169  00000+0  32611-3 0  9998
2 64095  72.9704  73.5401 0005019 308.6780  51.3966 15.29122656 44425
